[{"OBJECT_NAME":"METEOSAT-11 (MSG-4)","OBJECT_ID":"2015-034A","EPOCH":"2026-03-05T08:54:24.576192","MEAN_MOTION":1.00266403,"ECCENTRICITY":0.00018061,"INCLINATION":2.94,"RA_OF_ASC_NODE":71.675,"ARG_OF_PERICENTER":270.759,"MEAN_ANOMALY":323.6497,"EPHEMERIS_TYPE":0,"CLASSIFICATION_TYPE":"U","NORAD_CAT_ID":40732,"ELEMENT_SET_NO":999,"REV_AT_EPOCH":617,"BSTAR":0,"MEAN_MOTION_DOT":5.5e-7,"MEAN_MOTION_DDOT":0},{"OBJECT_NAME":"ELEKTRO-L 2","OBJECT_ID":"2015-074A","EPOCH":"2026-03-05T13:36:32.133312","MEAN_MOTION":1.00270857,"ECCENTRICITY":0.00033778,"INCLINATION":6.4339,"RA_OF_ASC_NODE":71.7988,"ARG_OF_PERICENTER":239.1004,"MEAN_ANOMALY":42.0209,"EPHEMERIS_TYPE":0,"CLASSIFICATION_TYPE":"U","NORAD_CAT_ID":41105,"ELEMENT_SET_NO":999,"REV_AT_EPOCH":3746,"BSTAR":0,"MEAN_MOTION_DOT":-1.22e-6,"MEAN_MOTION_DDOT":0},{"OBJECT_NAME":"INSAT-3DR","OBJECT_ID":"2016-054A","EPOCH":"2026-03-05T13:22:09.737760","MEAN_MOTION":1.00272577,"ECCENTRICITY":0.00131484,"INCLINATION":0.0502,"RA_OF_ASC_NODE":95.9276,"ARG_OF_PERICENTER":186.0546,"MEAN_ANOMALY":155.8268,"EPHEMERIS_TYPE":0,"CLASSIFICATION_TYPE":"U","NORAD_CAT_ID":41752,"ELEMENT_SET_NO":999,"REV_AT_EPOCH":3477,"BSTAR":0,"MEAN_MOTION_DOT":-8.4e-7,"MEAN_MOTION_DDOT":0},{"OBJECT_NAME":"HIMAWARI-9","OBJECT_ID":"2016-064A","EPOCH":"2026-03-05T12:57:17.669376","MEAN_MOTION":1.0027204,"ECCENTRICITY":0.00012182,"INCLINATION":0.014,"RA_OF_ASC_NODE":171.7398,"ARG_OF_PERICENTER":202.1342,"MEAN_ANOMALY":124.4972,"EPHEMERIS_TYPE":0,"CLASSIFICATION_TYPE":"U","NORAD_CAT_ID":41836,"ELEMENT_SET_NO":999,"REV_AT_EPOCH":3417,"BSTAR":0,"MEAN_MOTION_DOT":-2.82e-6,"MEAN_MOTION_DDOT":0},{"OBJECT_NAME":"GOES 16","OBJECT_ID":"2016-071A","EPOCH":"2026-03-05T13:29:59.535168","MEAN_MOTION":1.00271855,"ECCENTRICITY":0.00024562,"INCLINATION":0.1408,"RA_OF_ASC_NODE":89.6323,"ARG_OF_PERICENTER":220.4706,"MEAN_ANOMALY":310.984,"EPHEMERIS_TYPE":0,"CLASSIFICATION_TYPE":"U","NORAD_CAT_ID":41866,"ELEMENT_SET_NO":999,"REV_AT_EPOCH":3406,"BSTAR":0,"MEAN_MOTION_DOT":-9.8e-7,"MEAN_MOTION_DDOT":0},{"OBJECT_NAME":"FENGYUN 4A","OBJECT_ID":"2016-077A","EPOCH":"2026-03-05T14:35:08.287584","MEAN_MOTION":1.00278718,"ECCENTRICITY":0.00073575,"INCLINATION":2.0591,"RA_OF_ASC_NODE":81.4017,"ARG_OF_PERICENTER":135.6439,"MEAN_ANOMALY":288.6731,"EPHEMERIS_TYPE":0,"CLASSIFICATION_TYPE":"U","NORAD_CAT_ID":41882,"ELEMENT_SET_NO":999,"REV_AT_EPOCH":3389,"BSTAR":0,"MEAN_MOTION_DOT":-3.63e-6,"MEAN_MOTION_DDOT":0},{"OBJECT_NAME":"CYGFM05","OBJECT_ID":"2016-078A","EPOCH":"2026-03-05T14:00:38.452896","MEAN_MOTION":15.51936532,"ECCENTRICITY":0.00070753,"INCLINATION":34.9568,"RA_OF_ASC_NODE":224.2842,"ARG_OF_PERICENTER":250.4361,"MEAN_ANOMALY":109.5598,"EPHEMERIS_TYPE":0,"CLASSIFICATION_TYPE":"U","NORAD_CAT_ID":41884,"ELEMENT_SET_NO":999,"REV_AT_EPOCH":51262,"BSTAR":0.00047668897,"MEAN_MOTION_DOT":0.00029623,"MEAN_MOTION_DDOT":0},{"OBJECT_NAME":"CYGFM04","OBJECT_ID":"2016-078B","EPOCH":"2026-03-05T15:24:30.445920","MEAN_MOTION":15.55343115,"ECCENTRICITY":0.0006084,"INCLINATION":34.9331,"RA_OF_ASC_NODE":196.1183,"ARG_OF_PERICENTER":284.9283,"MEAN_ANOMALY":75.0767,"EPHEMERIS_TYPE":0,"CLASSIFICATION_TYPE":"U","NORAD_CAT_ID":41885,"ELEMENT_SET_NO":999,"REV_AT_EPOCH":51283,"BSTAR":0.00048612589,"MEAN_MOTION_DOT":0.00034227,"MEAN_MOTION_DDOT":0},{"OBJECT_NAME":"CYGFM02","OBJECT_ID":"2016-078C","EPOCH":"2026-03-05T14:42:59.942592","MEAN_MOTION":15.57612999,"ECCENTRICITY":0.00071323,"INCLINATION":34.9415,"RA_OF_ASC_NODE":193.2976,"ARG_OF_PERICENTER":286.2748,"MEAN_ANOMALY":73.7191,"EPHEMERIS_TYPE":0,"CLASSIFICATION_TYPE":"U","NORAD_CAT_ID":41886,"ELEMENT_SET_NO":999,"REV_AT_EPOCH":51297,"BSTAR":0.0008061748,"MEAN_MOTION_DOT":0.00062049,"MEAN_MOTION_DDOT":0},{"OBJECT_NAME":"CYGFM01","OBJECT_ID":"2016-078D","EPOCH":"2026-03-05T14:41:27.318336","MEAN_MOTION":15.52375631,"ECCENTRICITY":0.00067946,"INCLINATION":34.94,"RA_OF_ASC_NODE":225.9059,"ARG_OF_PERICENTER":242.9414,"MEAN_ANOMALY":117.0616,"EPHEMERIS_TYPE":0,"CLASSIFICATION_TYPE":"U","NORAD_CAT_ID":41887,"ELEMENT_SET_NO":999,"REV_AT_EPOCH":51257,"BSTAR":0.00047353342,"MEAN_MOTION_DOT":0.00029897,"MEAN_MOTION_DDOT":0},{"OBJECT_NAME":"CYGFM08","OBJECT_ID":"2016-078E","EPOCH":"2026-03-05T14:18:24.799968","MEAN_MOTION":15.53857595,"ECCENTRICITY":0.00081828,"INCLINATION":34.943,"RA_OF_ASC_NODE":207.9241,"ARG_OF_PERICENTER":267.3865,"MEAN_ANOMALY":92.5921,"EPHEMERIS_TYPE":0,"CLASSIFICATION_TYPE":"U","NORAD_CAT_ID":41888,"ELEMENT_SET_NO":999,"REV_AT_EPOCH":51281,"BSTAR":0.00047422939,"MEAN_MOTION_DOT":0.00031621,"MEAN_MOTION_DDOT":0},{"OBJECT_NAME":"CYGFM07","OBJECT_ID":"2016-078G","EPOCH":"2026-03-05T13:32:53.810016","MEAN_MOTION":15.54548597,"ECCENTRICITY":0.00066651,"INCLINATION":34.9455,"RA_OF_ASC_NODE":196.607,"ARG_OF_PERICENTER":287.1117,"MEAN_ANOMALY":72.8876,"EPHEMERIS_TYPE":0,"CLASSIFICATION_TYPE":"U","NORAD_CAT_ID":41890,"ELEMENT_SET_NO":999,"REV_AT_EPOCH":51283,"BSTAR":0.00047386248,"MEAN_MOTION_DOT":0.00032395,"MEAN_MOTION_DDOT":0},{"OBJECT_NAME":"CYGFM03","OBJECT_ID":"2016-078H","EPOCH":"2026-03-05T14:23:44.868768","MEAN_MOTION":15.54568751,"ECCENTRICITY":0.00059319,"INCLINATION":34.9408,"RA_OF_ASC_NODE":198.3508,"ARG_OF_PERICENTER":273.2204,"MEAN_ANOMALY":86.7841,"EPHEMERIS_TYPE":0,"CLASSIFICATION_TYPE":"U","NORAD_CAT_ID":41891,"ELEMENT_SET_NO":999,"REV_AT_EPOCH":51281,"BSTAR":0.00047744575,"MEAN_MOTION_DOT":0.0003266,"MEAN_MOTION_DDOT":0},{"OBJECT_NAME":"FENGYUN 3D","OBJECT_ID":"2017-072A","EPOCH":"2026-03-05T14:51:23.208768","MEAN_MOTION":14.19713533,"ECCENTRICITY":0.00017594,"INCLINATION":99.0022,"RA_OF_ASC_NODE":37.2283,"ARG_OF_PERICENTER":21.2753,"MEAN_ANOMALY":338.8495,"EPHEMERIS_TYPE":0,"CLASSIFICATION_TYPE":"U","NORAD_CAT_ID":43010,"ELEMENT_SET_NO":999,"REV_AT_EPOCH":43029,"BSTAR":0.0001078775,"MEAN_MOTION_DOT":1.82e-6,"MEAN_MOTION_DDOT":0},{"OBJECT_NAME":"NOAA 20 (JPSS-1)","OBJECT_ID":"2017-073A","EPOCH":"2026-03-05T14:22:57.982944","MEAN_MOTION":14.1953489,"ECCENTRICITY":0.00010265,"INCLINATION":98.7689,"RA_OF_ASC_NODE":5.0272,"ARG_OF_PERICENTER":143.0999,"MEAN_ANOMALY":217.0248,"EPHEMERIS_TYPE":0,"CLASSIFICATION_TYPE":"U","NORAD_CAT_ID":43013,"ELEMENT_SET_NO":999,"REV_AT_EPOCH":42977,"BSTAR":8.3055461e-5,"MEAN_MOTION_DOT":1.31e-6,"MEAN_MOTION_DDOT":0},{"OBJECT_NAME":"GOES 17","OBJECT_ID":"2018-022A","EPOCH":"2026-03-05T13:34:21.615744","MEAN_MOTION":1.00270256,"ECCENTRICITY":0.00021853,"INCLINATION":0.6711,"RA_OF_ASC_NODE":87.53,"ARG_OF_PERICENTER":223.44,"MEAN_ANOMALY":326.4009,"EPHEMERIS_TYPE":0,"CLASSIFICATION_TYPE":"U","NORAD_CAT_ID":43226,"ELEMENT_SET_NO":999,"REV_AT_EPOCH":2938,"BSTAR":0,"MEAN_MOTION_DOT":-1.89e-6,"MEAN_MOTION_DDOT":0},{"OBJECT_NAME":"FENGYUN 2H","OBJECT_ID":"2018-050A","EPOCH":"2026-03-05T14:22:24.508992","MEAN_MOTION":1.00272627,"ECCENTRICITY":0.00018159,"INCLINATION":2.7638,"RA_OF_ASC_NODE":80.3453,"ARG_OF_PERICENTER":175.4382,"MEAN_ANOMALY":202.2181,"EPHEMERIS_TYPE":0,"CLASSIFICATION_TYPE":"U","NORAD_CAT_ID":43491,"ELEMENT_SET_NO":999,"REV_AT_EPOCH":2840,"BSTAR":0,"MEAN_MOTION_DOT":-1.33e-6,"MEAN_MOTION_DDOT":0}]
