METEOSAT-11 (MSG-4)     
1 40732U 15034A   26064.37111778  .00000055  00000+0  00000+0 0  9990
2 40732   2.9400  71.6750 0001806 270.7590 323.6497  1.00266403  6174
ELEKTRO-L 2             
1 41105U 15074A   26064.56703858 -.00000122  00000+0  00000+0 0  9992
2 41105   6.4339  71.7988 0003377 239.1004  42.0209  1.00270857 37464
INSAT-3DR               
1 41752U 16054A   26064.55705715 -.00000084  00000+0  00000+0 0  9999
2 41752   0.0502  95.9276 0013148 186.0546 155.8268  1.00272577 34770
HIMAWARI-9              
1 41836U 16064A   26064.53978784 -.00000282  00000+0  00000+0 0  9999
2 41836   0.0140 171.7398 0001218 202.1342 124.4972  1.00272040 34171
GOES 16                 
1 41866U 16071A   26064.56249462 -.00000098  00000+0  00000+0 0  9992
2 41866   0.1408  89.6323 0002456 220.4706 310.9840  1.00271855 34066
FENGYUN 4A              
1 41882U 16077A   26064.60773481 -.00000363  00000+0  00000+0 0  9999
2 41882   2.0591  81.4017 0007357 135.6439 288.6731  1.00278718 33898
CYGFM05                 
1 41884U 16078A   26064.58377839  .00029623  00000+0  47669-3 0  9991
2 41884  34.9568 224.2842 0007075 250.4361 109.5598 15.51936532512629
CYGFM04                 
1 41885U 16078B   26064.64201905  .00034227  00000+0  48613-3 0  9995
2 41885  34.9331 196.1183 0006084 284.9283  75.0767 15.55343115512838
CYGFM02                 
1 41886U 16078C   26064.61319378  .00062049  00000+0  80617-3 0  9990
2 41886  34.9415 193.2976 0007132 286.2748  73.7191 15.57612999512978
CYGFM01                 
1 41887U 16078D   26064.61212174  .00029897  00000+0  47353-3 0  9991
2 41887  34.9400 225.9059 0006794 242.9414 117.0616 15.52375631512574
CYGFM08                 
1 41888U 16078E   26064.59612037  .00031621  00000+0  47423-3 0  9997
2 41888  34.9430 207.9241 0008182 267.3865  92.5921 15.53857595512813
CYGFM07                 
1 41890U 16078G   26064.56451169  .00032395  00000+0  47386-3 0  9991
2 41890  34.9455 196.6070 0006665 287.1117  72.8876 15.54548597512833
CYGFM03                 
1 41891U 16078H   26064.59982487  .00032660  00000+0  47745-3 0  9991
2 41891  34.9408 198.3508 0005931 273.2204  86.7841 15.54568751512813
FENGYUN 3D              
1 43010U 17072A   26064.61901862  .00000182  00000+0  10788-3 0  9993
2 43010  99.0022  37.2283 0001759  21.2753 338.8495 14.19713533430294
NOAA 20 (JPSS-1)        
1 43013U 17073A   26064.59928221  .00000131  00000+0  83055-4 0  9994
2 43013  98.7689   5.0272 0001026 143.0999 217.0248 14.19534890429777
GOES 17                 
1 43226U 18022A   26064.56552796 -.00000189  00000+0  00000+0 0  9990
2 43226   0.6711  87.5300 0002185 223.4400 326.4009  1.00270256 29387
FENGYUN 2H              
1 43491U 18050A   26064.59889478 -.00000133  00000+0  00000+0 0  9997
2 43491   2.7638  80.3453 0001815 175.4382 202.2181  1.00272627 28404
